IRIDIUM 26              
1 24903U 97043A   25174.52210419  .00000297  00000+0  93263-4 0  9998
2 24903  86.3959 107.9621 0002454  83.7222 276.4255 14.37150241457651
IRIDIUM 22              
1 24907U 97043E   25174.52684451  .00000239  00000+0  75557-4 0  9995
2 24907  86.3964 111.5050 0002264  83.6520 276.4934 14.35962081457685
DUMMY MASS 1            
1 24925U 97048A   25174.60831045  .00000290  00000+0  29249-4 0  9996
2 24925  86.3356 132.3611 0008785 114.9420 245.2719 14.86990715506080
DUMMY MASS 2            
1 24926U 97048B   25174.30230182  .00000297  00000+0  30160-4 0  9990
2 24926  86.3356 134.1105 0009270 125.6724 234.5365 14.86742734505819
IRIDIUM 29              
1 24944U 97051A   25174.33854801  .00000321  00000+0  10271-3 0  9995
2 24944  86.3972 141.3181 0002085  88.1623 271.9812 14.36472561454150
IRIDIUM 33              
1 24946U 97051C   25174.60605987  .00000231  00000+0  74272-4 0  9998
2 24946  86.3888 140.4667 0009891  64.3154 295.9063 14.34896165453661
IRIDIUM 28              
1 24948U 97051E   25174.30839983  .00000273  00000+0  84843-4 0  9993
2 24948  86.3977 138.8440 0002766  83.4215 276.7297 14.37390057454722
IRIDIUM 36              
1 24967U 97056C   25174.54920781  .00000303  00000+0  94577-4 0  9991
2 24967  86.3988 170.3266 0002326  82.2134 277.9328 14.37614281453131
